start=new Date('2022-12-15T00:00:00.000Z').valueOf();
sats=[{"SEMIMAJOR_AXIS":"6941.128","COUNTRY_CODE":"US","DECAY_DATE":null,"GP_ID":"220412409","PERIAPSIS":"561.289","INCLINATION":"97.6581","BSTAR":"0.00013373000000","ARG_OF_PERICENTER":"31.0505","MEAN_MOTION":"15.01266135","REV_AT_EPOCH":"2374","OBJECT_ID":"2022-077AC","LAUNCH_DATE":"2022-07-11","MEAN_ANOMALY":"329.0864","OBJECT_NAME":"STARLINK-4323","OBJECT_TYPE":"PAYLOAD","SITE":"AFWTR","RA_OF_ASC_NODE":"167.5076","CENTER_NAME":"EARTH","NORAD_CAT_ID":"53069","MEAN_MOTION_DDOT":"0.0000000000000","PERIOD":"95.919","EPHEMERIS_TYPE":"0","EPOCH":"2022-12-14T18:55:39.555264","MEAN_MOTION_DOT":"0.00001659","RCS_SIZE":"LARGE","ECCENTRICITY":"0.00024550","TIME_SYSTEM":"UTC","REF_FRAME":"TEME","CLASSIFICATION_TYPE":"U","ELEMENT_SET_NO":"999","APOAPSIS":"564.697","MEAN_ELEMENT_THEORY":"SGP4","TLE_LINE1":"1 53069U 22077AC  22348.78865226  .00001659  00000-0  13373-3 0  9995","TLE_LINE2":"2 53069  97.6581 167.5076 0002455  31.0505 329.0864 15.01266135 23741","FILE":"3699647"},{"SITE":"AFWTR","RA_OF_ASC_NODE":"167.1682","CENTER_NAME":"EARTH","OBJECT_TYPE":"PAYLOAD","NORAD_CAT_ID":"53070","PERIOD":"95.919","MEAN_MOTION_DDOT":"0.0000000000000","INCLINATION":"97.6569","PERIAPSIS":"561.394","GP_ID":"220370717","SEMIMAJOR_AXIS":"6941.143","DECAY_DATE":null,"COUNTRY_CODE":"US","OBJECT_NAME":"STARLINK-4342","MEAN_ANOMALY":"322.2316","OBJECT_ID":"2022-077AD","LAUNCH_DATE":"2022-07-11","REV_AT_EPOCH":"2427","BSTAR":"0.00019344000000","ARG_OF_PERICENTER":"37.9071","MEAN_MOTION":"15.01261224","ELEMENT_SET_NO":"999","FILE":"3698969","TLE_LINE2":"2 53070  97.6569 167.1682 0002326  37.9071 322.2316 15.01261224 24278","TLE_LINE1":"1 53070U 22077AD  22348.46094824  .00002427  00000-0  19344-3 0  9998","MEAN_ELEMENT_THEORY":"SGP4","APOAPSIS":"564.623","EPHEMERIS_TYPE":"0","EPOCH":"2022-12-14T11:03:45.927936","REF_FRAME":"TEME","CLASSIFICATION_TYPE":"U","TIME_SYSTEM":"UTC","ECCENTRICITY":"0.00023260","MEAN_MOTION_DOT":"0.00002427","RCS_SIZE":"LARGE"},{"APOAPSIS":"564.724","MEAN_ELEMENT_THEORY":"SGP4","TLE_LINE1":"1 53071U 22077AE  22348.78680280  .00001410  00000-0  11434-3 0  9994","TLE_LINE2":"2 53071  97.6588 167.5076 0002464  27.7342 332.4013 15.01259522 23748","FILE":"3699647","ELEMENT_SET_NO":"999","RCS_SIZE":"LARGE","MEAN_MOTION_DOT":"0.00001410","ECCENTRICITY":"0.00024640","TIME_SYSTEM":"UTC","CLASSIFICATION_TYPE":"U","REF_FRAME":"TEME","EPOCH":"2022-12-14T18:52:59.761920","EPHEMERIS_TYPE":"0","MEAN_MOTION_DDOT":"0.0000000000000","PERIOD":"95.919","NORAD_CAT_ID":"53071","OBJECT_TYPE":"PAYLOAD","CENTER_NAME":"EARTH","RA_OF_ASC_NODE":"167.5076","SITE":"AFWTR","MEAN_MOTION":"15.01259522","ARG_OF_PERICENTER":"27.7342","BSTAR":"0.00011434000000","REV_AT_EPOCH":"2374","LAUNCH_DATE":"2022-07-11","OBJECT_ID":"2022-077AE","MEAN_ANOMALY":"332.4013","OBJECT_NAME":"STARLINK-4328","COUNTRY_CODE":"US","DECAY_DATE":null,"SEMIMAJOR_AXIS":"6941.148","GP_ID":"220412612","INCLINATION":"97.6588","PERIAPSIS":"561.303"},{"TIME_SYSTEM":"UTC","REF_FRAME":"TEME","CLASSIFICATION_TYPE":"U","MEAN_MOTION_DOT":"0.00001059","RCS_SIZE":"LARGE","ECCENTRICITY":"0.00021490","EPHEMERIS_TYPE":"0","EPOCH":"2022-12-14T10:58:25.927392","TLE_LINE2":"2 53072  97.6583 167.1721 0002149  56.8067 303.3363 15.01260965 24271","FILE":"3698985","APOAPSIS":"564.501","MEAN_ELEMENT_THEORY":"SGP4","TLE_LINE1":"1 53072U 22077AF  22348.45724453  .00001059  00000-0  87008-4 0  9990","ELEMENT_SET_NO":"999","OBJECT_ID":"2022-077AF","LAUNCH_DATE":"2022-07-11","OBJECT_NAME":"STARLINK-4344","MEAN_ANOMALY":"303.3363","BSTAR":"0.00008700800000","MEAN_MOTION":"15.01260965","ARG_OF_PERICENTER":"56.8067","REV_AT_EPOCH":"2427","PERIAPSIS":"561.517","INCLINATION":"97.6583","SEMIMAJOR_AXIS":"6941.144","COUNTRY_CODE":"US","DECAY_DATE":null,"GP_ID":"220370573","NORAD_CAT_ID":"53072","MEAN_MOTION_DDOT":"0.0000000000000","PERIOD":"95.919","OBJECT_TYPE":"PAYLOAD","SITE":"AFWTR","RA_OF_ASC_NODE":"167.1721","CENTER_NAME":"EARTH"},{"MEAN_ELEMENT_THEORY":"SGP4","APOAPSIS":"565.165","TLE_LINE1":"1 53073U 22077AG  22348.78309462 -.00006934  00000-0 -53531-3 0  9998","TLE_LINE2":"2 53073  97.6537 167.5097 0003245  32.6796 327.4629 15.01292174 23740","FILE":"3699647","ELEMENT_SET_NO":"999","MEAN_MOTION_DOT":"-0.00006934","RCS_SIZE":"LARGE","ECCENTRICITY":"0.00032450","TIME_SYSTEM":"UTC","REF_FRAME":"TEME","CLASSIFICATION_TYPE":"U","EPHEMERIS_TYPE":"0","EPOCH":"2022-12-14T18:47:39.375168","NORAD_CAT_ID":"53073","PERIOD":"95.917","MEAN_MOTION_DDOT":"0.0000000000000","OBJECT_TYPE":"PAYLOAD","SITE":"AFWTR","RA_OF_ASC_NODE":"167.5097","CENTER_NAME":"EARTH","BSTAR":"-0.00053531000000","MEAN_MOTION":"15.01292174","ARG_OF_PERICENTER":"32.6796","REV_AT_EPOCH":"2374","LAUNCH_DATE":"2022-07-11","OBJECT_ID":"2022-077AG","MEAN_ANOMALY":"327.4629","OBJECT_NAME":"STARLINK-4346","SEMIMAJOR_AXIS":"6941.048","DECAY_DATE":null,"COUNTRY_CODE":"US","GP_ID":"220411998","PERIAPSIS":"560.660","INCLINATION":"97.6537"},{"PERIOD":"95.920","MEAN_MOTION_DDOT":"0.0000000000000","NORAD_CAT_ID":"53074","OBJECT_TYPE":"PAYLOAD","RA_OF_ASC_NODE":"167.1793","CENTER_NAME":"EARTH","SITE":"AFWTR","OBJECT_ID":"2022-077AH","LAUNCH_DATE":"2022-07-11","OBJECT_NAME":"STARLINK-4310","MEAN_ANOMALY":"334.0505","ARG_OF_PERICENTER":"26.0843","MEAN_MOTION":"15.01249865","BSTAR":"0.00000745260000","REV_AT_EPOCH":"2427","INCLINATION":"97.6589","PERIAPSIS":"561.329","DECAY_DATE":null,"COUNTRY_CODE":"US","SEMIMAJOR_AXIS":"6941.178","GP_ID":"220370929","TLE_LINE2":"2 53074  97.6589 167.1793 0002469  26.0843 334.0505 15.01249865 24279","FILE":"3698986","APOAPSIS":"564.757","MEAN_ELEMENT_THEORY":"SGP4","TLE_LINE1":"1 53074U 22077AH  22348.45380878  .00000037  00000-0  74526-5 0  9998","ELEMENT_SET_NO":"999","TIME_SYSTEM":"UTC","CLASSIFICATION_TYPE":"U","REF_FRAME":"TEME","RCS_SIZE":"LARGE","MEAN_MOTION_DOT":"0.00000037","ECCENTRICITY":"0.00024690","EPOCH":"2022-12-14T10:53:29.078592","EPHEMERIS_TYPE":"0"},{"ELEMENT_SET_NO":"999","FILE":"3699647","TLE_LINE2":"2 53075  97.6551 167.5143 0003029  23.0513 337.0847 15.01262236 23746","APOAPSIS":"565.107","MEAN_ELEMENT_THEORY":"SGP4","TLE_LINE1":"1 53075U 22077AJ  22348.77963930  .00001144  00000-0  93624-4 0  9999","EPHEMERIS_TYPE":"0","EPOCH":"2022-12-14T18:42:40.835520","TIME_SYSTEM":"UTC","REF_FRAME":"TEME","CLASSIFICATION_TYPE":"U","MEAN_MOTION_DOT":"0.00001144","RCS_SIZE":"LARGE","ECCENTRICITY":"0.00030290","OBJECT_TYPE":"PAYLOAD","SITE":"AFWTR","CENTER_NAME":"EARTH","RA_OF_ASC_NODE":"167.5143","NORAD_CAT_ID":"53075","PERIOD":"95.919","MEAN_MOTION_DDOT":"0.0000000000000","PERIAPSIS":"560.902","INCLINATION":"97.6551","SEMIMAJOR_AXIS":"6941.140","DECAY_DATE":null,"COUNTRY_CODE":"US","GP_ID":"220412201","LAUNCH_DATE":"2022-07-11","OBJECT_ID":"2022-077AJ","OBJECT_NAME":"STARLINK-4348","MEAN_ANOMALY":"337.0847","BSTAR":"0.00009362400000","ARG_OF_PERICENTER":"23.0513","MEAN_MOTION":"15.01262236","REV_AT_EPOCH":"2374"},{"TLE_LINE2":"2 53076  97.6577 167.5086 0002816  30.2313 329.9073 15.01261760 23744","FILE":"3699647","APOAPSIS":"564.961","MEAN_ELEMENT_THEORY":"SGP4","TLE_LINE1":"1 53076U 22077AK  22348.78495353 -.00000149  00000-0 -69782-5 0  9995","ELEMENT_SET_NO":"999","TIME_SYSTEM":"UTC","REF_FRAME":"TEME","CLASSIFICATION_TYPE":"U","MEAN_MOTION_DOT":"-0.00000149","RCS_SIZE":"LARGE","ECCENTRICITY":"0.00028160","EPHEMERIS_TYPE":"0","EPOCH":"2022-12-14T18:50:19.984992","NORAD_CAT_ID":"53076","PERIOD":"95.919","MEAN_MOTION_DDOT":"0.0000000000000","OBJECT_TYPE":"PAYLOAD","SITE":"AFWTR","CENTER_NAME":"EARTH","RA_OF_ASC_NODE":"167.5086","LAUNCH_DATE":"2022-07-11","OBJECT_ID":"2022-077AK","MEAN_ANOMALY":"329.9073","OBJECT_NAME":"STARLINK-4347","BSTAR":"-0.00000697820000","ARG_OF_PERICENTER":"30.2313","MEAN_MOTION":"15.01261760","REV_AT_EPOCH":"2374","PERIAPSIS":"561.052","INCLINATION":"97.6577","SEMIMAJOR_AXIS":"6941.141","COUNTRY_CODE":"US","DECAY_DATE":null,"GP_ID":"220411582"},{"TLE_LINE1":"1 53077U 22077AL  22348.77754160  .00001531  00000-0  12375-3 0  9997","MEAN_ELEMENT_THEORY":"SGP4","APOAPSIS":"565.176","TLE_LINE2":"2 53077  97.6555 167.5141 0003177  17.5197 342.6136 15.01273200 23746","FILE":"3699647","ELEMENT_SET_NO":"999","ECCENTRICITY":"0.00031770","MEAN_MOTION_DOT":"0.00001531","RCS_SIZE":"LARGE","REF_FRAME":"TEME","CLASSIFICATION_TYPE":"U","TIME_SYSTEM":"UTC","EPHEMERIS_TYPE":"0","EPOCH":"2022-12-14T18:39:39.594240","NORAD_CAT_ID":"53077","MEAN_MOTION_DDOT":"0.0000000000000","PERIOD":"95.919","SITE":"AFWTR","RA_OF_ASC_NODE":"167.5141","CENTER_NAME":"EARTH","OBJECT_TYPE":"PAYLOAD","REV_AT_EPOCH":"2374","BSTAR":"0.00012375000000","MEAN_MOTION":"15.01273200","ARG_OF_PERICENTER":"17.5197","OBJECT_NAME":"STARLINK-4315","MEAN_ANOMALY":"342.6136","LAUNCH_DATE":"2022-07-11","OBJECT_ID":"2022-077AL","GP_ID":"220412410","SEMIMAJOR_AXIS":"6941.106","COUNTRY_CODE":"US","DECAY_DATE":null,"PERIAPSIS":"560.766","INCLINATION":"97.6555"},{"NORAD_CAT_ID":"53078","MEAN_MOTION_DDOT":"0.0000000000000","PERIOD":"95.919","OBJECT_TYPE":"PAYLOAD","SITE":"AFWTR","CENTER_NAME":"EARTH","RA_OF_ASC_NODE":"167.5107","OBJECT_ID":"2022-077AM","LAUNCH_DATE":"2022-07-11","MEAN_ANOMALY":"346.3715","OBJECT_NAME":"STARLINK-4322","BSTAR":"0.00014287000000","MEAN_MOTION":"15.01265159","ARG_OF_PERICENTER":"13.7596","REV_AT_EPOCH":"2374","PERIAPSIS":"560.771","INCLINATION":"97.6565","SEMIMAJOR_AXIS":"6941.131","DECAY_DATE":null,"COUNTRY_CODE":"US","GP_ID":"220411790","FILE":"3699647","TLE_LINE2":"2 53078  97.6565 167.5107 0003205  13.7596 346.3715 15.01265159 23741","MEAN_ELEMENT_THEORY":"SGP4","APOAPSIS":"565.221","TLE_LINE1":"1 53078U 22077AM  22348.78124370  .00001777  00000-0  14287-3 0  9999","ELEMENT_SET_NO":"999","TIME_SYSTEM":"UTC","REF_FRAME":"TEME","CLASSIFICATION_TYPE":"U","MEAN_MOTION_DOT":"0.00001777","RCS_SIZE":"LARGE","ECCENTRICITY":"0.00032050","EPHEMERIS_TYPE":"0","EPOCH":"2022-12-14T18:44:59.455680"}];
